INTELSAT 902 (IS-902)   
1 26900U 01039A   26169.52849991 -.00000292  00000+0  00000+0 0  9993
2 26900   6.1204  71.7676 0004307  12.4923 322.6674  1.00271543 90700
INTELSAT 904 (IS-904)   
1 27380U 02007A   26169.46096602 -.00000235  00000+0  00000+0 0  9995
2 27380   6.9241  69.1697 0006530   5.9759 326.0004  1.00270286 51772
DIRECTV 5 (TEMPO 1)     
1 27426U 02023A   26169.41919968 -.00000065  00000+0  00000+0 0  9999
2 27426   4.8819  75.2944 0003143  13.6987 218.4628  1.00271613 88131
INTELSAT 905 (IS-905)   
1 27438U 02027A   26169.46642175  .00000085  00000+0  00000+0 0  9995
2 27438   6.7576  69.7858 0003874  22.2862 205.3245  1.00271956 51372
GALAXY 3C (G-3C)        
1 27445U 02030A   26169.37701778 -.00000160  00000+0  00000+0 0  9997
2 27445   3.7359  77.9598 0001601  30.5698 198.9629  1.00271347 46509
INTELSAT 906 (IS-906)   
1 27513U 02041A   26169.20649958  .00000004  00000+0  00000+0 0  9994
2 27513   5.8051  72.9092 0004397   2.8775 329.1640  1.00275136 87038
GALAXY 13 (HORIZONS-1)  
1 27954U 03044A   26169.65134433  .00000126  00000+0  00000+0 0  9998
2 27954   1.4228  83.8471 0002227 355.5372 271.9735  1.00271682 46584
INTELSAT 10-02          
1 28358U 04022A   26169.60952243 -.00000017  00000+0  00000+0 0  9996
2 28358   0.0170 305.3898 0000089 226.0866 313.7894  1.00271494 80572
DIRECTV 8               
1 28659U 05019A   26169.65741102  .00000000  00000+0  00000+0 0  9993
2 28659   0.0194  12.3444 0002974  81.1360 291.0348  1.00269879 77086
GALAXY 28 (G-28)        
1 28702U 05022A   26169.46174602 -.00000208  00000+0  00000+0 0  9991
2 28702   3.3016  78.9193 0002842   7.7048 319.2276  1.00271106 51984
GALAXY 16 (G-16)        
1 29236U 06023A   26169.66139771 -.00000133  00000+0  00000+0 0  9993
2 29236   0.0108  96.8222 0002510 347.0208 322.1537  1.00271467 72981
DIRECTV 9S              
1 29494U 06043A   26169.66096436 -.00000120  00000+0  00000+0 0  9997
2 29494   2.4256  80.8851 0004970  13.4998 309.2610  1.00270968 51395
GALAXY 17 (G-17)        
1 31307U 07016B   26169.52156654 -.00000213  00000+0  00000+0 0  9991
2 31307   2.9764  79.8836 0004658  18.4949 271.1316  1.00271658 69818
INTELSAT 11 (IS-11)     
1 32253U 07044B   26169.62371454 -.00000215  00000+0  00000+0 0  9993
2 32253   3.5701  78.6527 0002428  88.8535  83.4456  0.99050198 68466
HORIZONS-2              
1 32388U 07063B   26169.52381987 -.00000261  00000+0  00000+0 0  9995
2 32388   2.6063  80.6082 0003850 358.1173 302.7926  1.00272958 67827
DIRECTV 11              
1 32729U 08013A   26169.51879318 -.00000132  00000+0  00000+0 0  9996
2 32729   0.0096 269.4720 0000152 187.3657 257.5063  1.00271979 45604
GALAXY 18 (G-18)        
1 32951U 08024A   26169.65663102  .00000019  00000+0  00000+0 0  9995
2 32951   0.0159  58.5793 0002786  26.7804 294.9187  1.00270297 45865
INTELSAT 25 (IS-25)     
1 33153U 08034A   26169.68396065 -.00000185  00000+0  00000+0 0  9990
2 33153   2.7147  80.3557 0003444  60.5610 127.2162  0.99034120 65706
GALAXY 19 (G-19)        
1 33376U 08045A   26169.66183103 -.00000145  00000+0  00000+0 0  9990
2 33376   0.0324 263.5653 0002518 188.5280 316.0666  1.00271177 64915
FM-5                    
1 35493U 09034A   26169.52139321 -.00000207  00000+0  00000+0 0  9998
2 35493   0.0186 296.2063 0000622  11.6391  60.4535  1.00277833 46655
INTELSAT 14 (IS-14)     
1 36097U 09064A   26169.45819266 -.00000280  00000+0  00000+0 0  9998
2 36097   0.0119 310.1717 0002296 135.4044 301.0751  1.00272000 60610
INTELSAT 15 (IS-15)     
1 36106U 09067A   26169.62655139 -.00000191  00000+0  00000+0 0  9999
2 36106   0.0151 336.7829 0002115 110.5059 130.2753  1.00272210 41240
DIRECTV 12              
1 36131U 09075A   26169.66070436 -.00000110  00000+0  00000+0 0  9992
2 36131   0.0434 170.9001 0000385 299.0990 292.0273  1.00272181 46567
INTELSAT 16 (IS-16)     
1 36397U 10006A   26169.52329987 -.00000251  00000+0  00000+0 0  9991
2 36397   0.0106 326.8305 0001928 134.2807 277.8288  1.00272434 59660
XM-5                    
1 37185U 10053A   26169.65819102 -.00000029  00000+0  00000+0 0  9999
2 37185   0.0617 273.0740 0002633 290.4585 185.1075  1.00269942 57495
INTELSAT 17 (IS-17)     
1 37238U 10065B   26169.68656463 -.00000008  00000+0  00000+0 0  9990
2 37238   0.0034 326.6852 0002599 132.0213 121.3749  1.00271911 53266
INTELSAT 28 (IS-28)     
1 37392U 11016A   26169.38958450 -.00000232  00000+0  00000+0 0  9995
2 37392   1.8103  82.6007 0003596   6.0263 286.5334  1.00271560 53294
INTELSAT 18 (IS-18)     
1 37834U 11056A   26169.64536428  .00000046  00000+0  00000+0 0  9998
2 37834   0.0383 272.8978 0001718 174.3653 231.9404  1.00270770 53825
INTELSAT 22 (IS-22)     
1 38098U 12011A   26169.48141942 -.00000065  00000+0  00000+0 0  9990
2 38098   0.0136  37.1505 0001541  53.9901  60.9919  1.00272371  7205
INTELSAT 19 (IS-19)     
1 38356U 12030A   26169.62197516 -.00000063  00000+0  00000+0 0  9990
2 38356   0.0188   3.0887 0002930  92.7218 200.9507  1.00271401 50467
INTELSAT 20 (IS-20)     
1 38740U 12043A   26169.55181333  .00000000  00000+0  00000+0 0  9993
2 38740   0.0365  68.9244 0001820 108.0346 356.9762  1.00270903 50762
